NORAD_CAT_ID,OBJECT_NAME,OBJECT_TYPE,EPOCH,MEAN_MOTION,ECCENTRICITY,INCLINATION,RA_OF_ASC_NODE,ARG_OF_PERICENTER,MEAN_ANOMALY,BSTAR,MEAN_MOTION_DOT,MEAN_MOTION_DDOT,TLE_LINE0,TLE_LINE1,TLE_LINE2,SEMIMAJOR_AXIS,PERIOD,APOGEE,PERIGEE,DECAYED
55281.0,STARLINK-5298,PAYLOAD,2023-10-28 17:34:09,14.98323101,0.0002977,70.0005,60.2631,266.856,93.2258,-6.732e-05,-8.96e-06,0.0,0 STARLINK-5298,1 55281U 23010N   23301.73205106 -.00000896  00000-0 -67320-4 0  9997,2 55281  70.0005  60.2631 0002977 266.8560  93.2258 14.98323101 43515,6950.214,96.107,574.148,570.01,0.0
55281.0,STARLINK-5298,PAYLOAD,2023-10-29 01:34:48,14.98333042,0.0003107,70.0003,59.4208,268.2418,91.8385,-2.442e-05,-3.84e-06,0.0,0 STARLINK-5298,1 55281U 23010N   23302.06584340 -.00000384  00000-0 -24420-4 0  9990,2 55281  70.0003  59.4208 0003107 268.2418  91.8385 14.98333042 43269,6950.183,96.107,574.208,569.889,0.0
55281.0,STARLINK-5298,PAYLOAD,2023-10-29 14:23:52,14.98343716,0.0003102,70.0003,58.0747,267.9603,92.1201,0.00011939,1.332e-05,0.0,0 STARLINK-5298,1 55281U 23010N   23302.59991096  .00001332  00000-0  11939-3 0  9990,2 55281  70.0003  58.0747 0003102 267.9603  92.1201 14.98343716 43641,6950.15,96.106,574.171,569.86,0.0
55281.0,STARLINK-5298,PAYLOAD,2023-10-29 17:36:08,14.98347845,0.0003102,70.0004,57.7382,268.112,91.9684,0.00016875,1.922e-05,0.0,0 STARLINK-5298,1 55281U 23010N   23302.73342614  .00001922  00000-0  16875-3 0  9991,2 55281  70.0004  57.7382 0003102 268.1120  91.9684 14.98347845 43368,6950.138,96.106,574.159,569.847,0.0
55281.0,STARLINK-5298,PAYLOAD,2023-10-30 11:13:38,14.98319506,0.0003037,70.0004,55.8874,269.7685,90.3126,6.3e-05,6.59e-06,0.0,0 STARLINK-5298,1 55281U 23010N   23303.46780627  .00000659  00000-0  63000-4 0  9991,2 55281  70.0004  55.8874 0003037 269.7685  90.3126 14.98319506 43472,6950.225,96.108,574.201,569.98,0.0
55281.0,STARLINK-5298,PAYLOAD,2023-10-30 14:25:54,14.98320334,0.000289,70.0005,55.5501,269.9717,90.1111,-1.6591e-05,-2.91e-06,0.0,0 STARLINK-5298,1 55281U 23010N   23303.60132877 -.00000291  00000-0 -16591-4 0  9992,2 55281  70.0005  55.5501 0002890 269.9717  90.1111 14.98320334 43799,6950.223,96.108,574.096,570.079,0.0
55281.0,STARLINK-5298,PAYLOAD,2023-10-31 12:51:47,14.98328668,0.0002789,70.001,53.1935,270.8474,89.2366,-0.00012265,-1.556e-05,0.0,0 STARLINK-5298,1 55281U 23010N   23304.53596918 -.00001556  00000-0 -12265-3 0  9993,2 55281  70.0010  53.1935 0002789 270.8474  89.2366 14.98328668 43630,6950.197,96.107,574.0,570.124,0.0
55281.0,STARLINK-5298,PAYLOAD,2023-10-31 14:27:55,14.98331588,0.0002474,70.001,53.026,256.5164,103.572,-8.4584e-05,-1.102e-05,0.0,0 STARLINK-5298,1 55281U 23010N   23304.60272580 -.00001102  00000-0 -84584-4 0  9998,2 55281  70.0010  53.0260 0002474 256.5164 103.5720 14.98331588 43941,6950.188,96.107,573.772,570.334,0.0
55281.0,STARLINK-5298,PAYLOAD,2023-10-31 17:40:11,14.98333713,0.0002791,70.0011,52.6888,268.9107,91.1732,-6.4399e-05,-8.61e-06,0.0,0 STARLINK-5298,1 55281U 23010N   23304.73624418 -.00000861  00000-0 -64399-4 0  9996,2 55281  70.0011  52.6888 0002791 268.9107  91.1732 14.98333713 43968,6950.181,96.107,573.986,570.107,0.0
55281.0,STARLINK-5298,PAYLOAD,2023-11-01 00:04:43,14.98339797,0.0002786,70.0014,52.0162,268.9149,91.1691,-0.00018335,-2.28e-05,0.0,0 STARLINK-5298,1 55281U 23010N   23305.00328244 -.00002280  00000-0 -18335-3 0  9990,2 55281  70.0014  52.0162 0002786 268.9149  91.1691 14.98339797 43704,6950.163,96.106,573.964,570.091,0.0
55281.0,STARLINK-5298,PAYLOAD,2023-11-01 14:29:56,14.98325894,0.0002715,70.0011,50.5008,271.3005,88.7843,0.00020117,2.308e-05,0.0,0 STARLINK-5298,1 55281U 23010N   23305.60412200  .00002308  00000-0  20117-3 0  9992,2 55281  70.0011  50.5008 0002715 271.3005  88.7843 14.98325894 44091,6950.206,96.107,573.958,570.184,0.0
55281.0,STARLINK-5298,PAYLOAD,2023-11-01 16:06:04,14.98331257,0.0002694,70.0012,50.3327,271.3725,88.7125,0.00015988,1.815e-05,0.0,0 STARLINK-5298,1 55281U 23010N   23305.67087964  .00001815  00000-0  15988-3 0  9996,2 55281  70.0012  50.3327 0002694 271.3725  88.7125 14.98331257 44104,6950.189,96.107,573.926,570.182,0.0
55281.0,STARLINK-5298,PAYLOAD,2023-11-02 12:55:49,14.98331649,0.0002648,70.0013,48.1435,266.0635,94.0221,7.5221e-05,8.05e-06,0.0,0 STARLINK-5298,1 55281U 23010N   23306.53876174  .00000805  00000-0  75221-4 0  9996,2 55281  70.0013  48.1435 0002648 266.0635  94.0221 14.98331649 43932,6950.188,96.107,573.893,570.212,0.0
55281.0,STARLINK-5298,PAYLOAD,2023-11-02 14:31:57,14.98328111,0.0002658,70.0014,47.9752,267.506,92.5794,6.113e-05,6.36e-06,0.0,0 STARLINK-5298,1 55281U 23010N   23306.60552454  .00000636  00000-0  61130-4 0  9992,2 55281  70.0014  47.9752 0002658 267.5060  92.5794 14.98328111 44244,6950.199,96.107,573.911,570.216,0.0
55281.0,STARLINK-5298,PAYLOAD,2023-11-02 16:08:05,14.98332764,0.0002718,70.0014,47.8071,267.5229,92.5619,0.00010632,1.176e-05,0.0,0 STARLINK-5298,1 55281U 23010N   23306.67228037  .00001176  00000-0  10632-3 0  9996,2 55281  70.0014  47.8071 0002718 267.5229  92.5619 14.98332764 44257,6950.184,96.107,573.938,570.16,0.0
55281.0,STARLINK-5298,PAYLOAD,2023-11-03 11:21:42,14.98327301,0.0002789,70.0016,45.7883,268.5234,91.5605,-8.2942e-05,-1.082e-05,0.0,0 STARLINK-5298,1 55281U 23010N   23307.47340785 -.00001082  00000-0 -82942-4 0  9992,2 55281  70.0016  45.7883 0002789 268.5234  91.5605 14.98327301 44077,6950.201,96.107,574.005,570.128,0.0
55281.0,STARLINK-5298,PAYLOAD,2023-11-03 14:33:58,14.98329991,0.0002774,70.0014,45.452,266.2571,93.8271,-4.2607e-05,-6.01e-06,0.0,0 STARLINK-5298,1 55281U 23010N   23307.60692511 -.00000601  00000-0 -42607-4 0  9994,2 55281  70.0014  45.4520 0002774 266.2571  93.8271 14.98329991 44399,6950.193,96.107,573.986,570.13,0.0
55281.0,STARLINK-5298,PAYLOAD,2023-11-03 16:10:06,14.98331075,0.0002809,70.0015,45.2837,268.0631,92.0206,-4.8441e-05,-6.71e-06,0.0,0 STARLINK-5298,1 55281U 23010N   23307.67368444 -.00000671  00000-0 -48441-4 0  9995,2 55281  70.0015  45.2837 0002809 268.0631  92.0206 14.98331075 44402,6950.19,96.107,574.007,570.102,0.0
55281.0,STARLINK-5298,PAYLOAD,2023-11-04 14:35:59,14.98325686,0.0002888,70.0012,42.926,267.0454,93.0375,4.5004e-06,-3.9e-07,0.0,0 STARLINK-5298,1 55281U 23010N   23308.60832750 -.00000039  00000-0  45004-5 0  9995,2 55281  70.0012  42.9260 0002888 267.0454  93.0375 14.98325686 44546,6950.206,96.107,574.078,570.064,0.0
55281.0,STARLINK-5298,PAYLOAD,2023-11-04 16:12:07,14.98326317,0.0002917,70.0014,42.7579,267.9452,92.1373,1.2418e-05,5.5e-07,0.0,0 STARLINK-5298,1 55281U 23010N   23308.67508707  .00000055  00000-0  12418-4 0  9993,2 55281  70.0014  42.7579 0002917 267.9452  92.1373 14.98326317 44257,6950.204,96.107,574.097,570.042,0.0
55281.0,STARLINK-5298,PAYLOAD,2023-11-05 14:37:59,14.98339595,0.0003044,70.001,40.4011,269.9543,90.1267,0.00017206,1.961e-05,0.0,0 STARLINK-5298,1 55281U 23010N   23309.60971506  .00001961  00000-0  17206-3 0  9994,2 55281  70.0010  40.4011 0003044 269.9543  90.1267 14.98339595 44694,6950.163,96.106,574.144,569.913,0.0
55281.0,STARLINK-5298,PAYLOAD,2023-11-05 16:14:07,14.98341611,0.0002906,70.0014,40.2329,269.1037,90.9789,0.00019369,2.22e-05,0.0,0 STARLINK-5298,1 55281U 23010N   23309.67647294  .00002220  00000-0  19369-3 0  9996,2 55281  70.0014  40.2329 0002906 269.1037  90.9789 14.98341611 44402,6950.157,96.106,574.042,570.002,0.0
55281.0,STARLINK-5298,PAYLOAD,2023-11-06 09:51:36,14.98336339,0.0002712,70.0024,38.3819,267.0067,93.0781,0.00015927,1.808e-05,0.0,0 STARLINK-5298,1 55281U 23010N   23310.41083414  .00001808  00000-0  15927-3 0  9995,2 55281  70.0024  38.3819 0002712 267.0067  93.0781 14.98336339 44519,6950.173,96.107,573.923,570.153,0.0
55281.0,STARLINK-5298,PAYLOAD,2023-11-06 13:03:51,14.98344694,0.0002789,70.0017,38.0466,266.3977,93.6863,0.00019513,2.237e-05,0.0,0 STARLINK-5298,1 55281U 23010N   23310.54434706  .00002237  00000-0  19513-3 0  9995,2 55281  70.0017  38.0466 0002789 266.3977  93.6863 14.98344694 44837,6950.147,96.106,573.951,570.074,0.0
55281.0,STARLINK-5298,PAYLOAD,2023-11-06 16:16:07,14.98345387,0.000267,70.0024,37.7105,262.2805,97.8051,0.00020098,2.307e-05,0.0,0 STARLINK-5298,1 55281U 23010N   23310.67786521  .00002307  00000-0  20098-3 0  9992,2 55281  70.0024  37.7105 0002670 262.2805  97.8051 14.98345387 44559,6950.145,96.106,573.866,570.155,0.0
55281.0,STARLINK-5298,PAYLOAD,2023-11-06 22:40:41,14.98322527,0.0002841,70.0014,37.0351,281.737,78.347,-8.2356e-05,-1.075e-05,0.0,0 STARLINK-5298,1 55281U 23010N   23310.94492696 -.00001075  00000-0 -82356-4 0  9998,2 55281  70.0014  37.0351 0002841 281.7370  78.3470 14.98322527 44591,6950.216,96.107,574.056,570.106,0.0
55281.0,STARLINK-5298,PAYLOAD,2023-11-07 11:29:48,14.98305657,0.0002821,70.0016,35.6893,276.5428,83.541,-0.00033461,-4.081e-05,0.0,0 STARLINK-5298,1 55281U 23010N   23311.47902986 -.00004081  00000-0 -33461-3 0  9997,2 55281  70.0016  35.6893 0002821 276.5428  83.5410 14.98305657 44678,6950.268,96.109,574.094,570.173,0.0
55281.0,STARLINK-5298,PAYLOAD,2023-11-07 13:05:56,14.98308994,0.0002755,70.0017,35.5217,275.0675,85.0169,-0.00038095,-4.633e-05,0.0,0 STARLINK-5298,1 55281U 23010N   23311.54578959 -.00004633  00000-0 -38095-3 0  9995,2 55281  70.0017  35.5217 0002755 275.0675  85.0169 14.98308994 44981,6950.258,96.108,574.038,570.208,0.0
55281.0,STARLINK-5298,PAYLOAD,2023-11-07 22:42:42,14.98372251,0.0003347,70.0013,34.5088,272.4749,87.6027,-0.0011169,-0.00013409,0.0,0 STARLINK-5298,1 55281U 23010N   23311.94632679 -.00013409  00000-0 -11169-2 0  9992,2 55281  70.0013  34.5088 0003347 272.4749  87.6027 14.98372251 44745,6950.062,96.104,574.253,569.601,0.0
55281.0,STARLINK-5298,PAYLOAD,2023-11-08 11:31:47,14.9832962,0.000275,70.0018,33.1649,268.2247,91.8598,-6.4374e-05,-8.61e-06,0.0,0 STARLINK-5298,1 55281U 23010N   23312.48041385 -.00000861  00000-0 -64374-4 0  9996,2 55281  70.0018  33.1649 0002750 268.2247  91.8598 14.98329620 44822,6950.194,96.107,573.97,570.148,0.0
